CCSDS_OMM_VERS = 2.0
CREATION_DATE  = 
ORIGINATOR     = 

OBJECT_NAME    = STARLINK-36616
OBJECT_ID      = 2026-022AA
CENTER_NAME    = EARTH
REF_FRAME      = TEME
TIME_SYSTEM    = UTC
MEAN_ELEMENT_THEORY = SGP/SGP4

EPOCH          = 2026-02-23T12:44:06.016416
MEAN_MOTION    = 15.75334939
ECCENTRICITY   = .000155
INCLINATION    = 97.2852
RA_OF_ASC_NODE = 87.8633
ARG_OF_PERICENTER = 78.5442
MEAN_ANOMALY   = 281.5998

EPHEMERIS_TYPE = 0
CLASSIFICATION_TYPE = U
NORAD_CAT_ID   = 67672
ELEMENT_SET_NO = 999
REV_AT_EPOCH   = 332
BSTAR          = .31585E-2
MEAN_MOTION_DOT = .502959E-2
MEAN_MOTION_DDOT = 0

CCSDS_OMM_VERS = 2.0
CREATION_DATE  = 
ORIGINATOR     = 

OBJECT_NAME    = COSMOS 2600
OBJECT_ID      = 2026-023A
CENTER_NAME    = EARTH
REF_FRAME      = TEME
TIME_SYSTEM    = UTC
MEAN_ELEMENT_THEORY = SGP/SGP4

EPOCH          = 2026-02-23T14:50:24.796320
MEAN_MOTION    = 15.83467665
ECCENTRICITY   = .0001632
INCLINATION    = 96.6455
RA_OF_ASC_NODE = 130.7022
ARG_OF_PERICENTER = 56.8519
MEAN_ANOMALY   = 303.2909

EPHEMERIS_TYPE = 0
CLASSIFICATION_TYPE = U
NORAD_CAT_ID   = 67674
ELEMENT_SET_NO = 999
REV_AT_EPOCH   = 282
BSTAR          = .43152E-3
MEAN_MOTION_DOT = .94306E-3
MEAN_MOTION_DDOT = 0

CCSDS_OMM_VERS = 2.0
CREATION_DATE  = 
ORIGINATOR     = 

OBJECT_NAME    = 2026-023B
OBJECT_ID      = 2026-023B
CENTER_NAME    = EARTH
REF_FRAME      = TEME
TIME_SYSTEM    = UTC
MEAN_ELEMENT_THEORY = SGP/SGP4

EPOCH          = 2026-02-23T20:31:26.141952
MEAN_MOTION    = 15.22623183
ECCENTRICITY   = .0018498
INCLINATION    = 96.6379
RA_OF_ASC_NODE = 129.4066
ARG_OF_PERICENTER = 179.1984
MEAN_ANOMALY   = 180.9287

EPHEMERIS_TYPE = 0
CLASSIFICATION_TYPE = U
NORAD_CAT_ID   = 67675
ELEMENT_SET_NO = 999
REV_AT_EPOCH   = 275
BSTAR          = .47546E-3
MEAN_MOTION_DOT = .11055E-3
MEAN_MOTION_DDOT = 0

CCSDS_OMM_VERS = 2.0
CREATION_DATE  = 
ORIGINATOR     = 

OBJECT_NAME    = 2026-023C
OBJECT_ID      = 2026-023C
CENTER_NAME    = EARTH
REF_FRAME      = TEME
TIME_SYSTEM    = UTC
MEAN_ELEMENT_THEORY = SGP/SGP4

EPOCH          = 2026-02-23T20:30:19.090368
MEAN_MOTION    = 15.22707396
ECCENTRICITY   = .001969
INCLINATION    = 96.6415
RA_OF_ASC_NODE = 129.4241
ARG_OF_PERICENTER = 169.3583
MEAN_ANOMALY   = 190.8077

EPHEMERIS_TYPE = 0
CLASSIFICATION_TYPE = U
NORAD_CAT_ID   = 67676
ELEMENT_SET_NO = 999
REV_AT_EPOCH   = 291
BSTAR          = .56244E-3
MEAN_MOTION_DOT = .13133E-3
MEAN_MOTION_DDOT = 0

CCSDS_OMM_VERS = 2.0
CREATION_DATE  = 
ORIGINATOR     = 

OBJECT_NAME    = 2026-023D
OBJECT_ID      = 2026-023D
CENTER_NAME    = EARTH
REF_FRAME      = TEME
TIME_SYSTEM    = UTC
MEAN_ELEMENT_THEORY = SGP/SGP4

EPOCH          = 2026-02-23T20:32:29.145696
MEAN_MOTION    = 15.22549359
ECCENTRICITY   = .0019839
INCLINATION    = 96.6445
RA_OF_ASC_NODE = 129.4102
ARG_OF_PERICENTER = 174.3703
MEAN_ANOMALY   = 185.7762

EPHEMERIS_TYPE = 0
CLASSIFICATION_TYPE = U
NORAD_CAT_ID   = 67677
ELEMENT_SET_NO = 999
REV_AT_EPOCH   = 274
BSTAR          = .49127E-3
MEAN_MOTION_DOT = .11408E-3
MEAN_MOTION_DDOT = 0

CCSDS_OMM_VERS = 2.0
CREATION_DATE  = 
ORIGINATOR     = 

OBJECT_NAME    = 2026-023E
OBJECT_ID      = 2026-023E
CENTER_NAME    = EARTH
REF_FRAME      = TEME
TIME_SYSTEM    = UTC
MEAN_ELEMENT_THEORY = SGP/SGP4

EPOCH          = 2026-02-23T20:30:46.364256
MEAN_MOTION    = 15.22685176
ECCENTRICITY   = .001964
INCLINATION    = 96.6339
RA_OF_ASC_NODE = 129.4022
ARG_OF_PERICENTER = 173.7995
MEAN_ANOMALY   = 186.3491

EPHEMERIS_TYPE = 0
CLASSIFICATION_TYPE = U
NORAD_CAT_ID   = 67678
ELEMENT_SET_NO = 999
REV_AT_EPOCH   = 274
BSTAR          = .57986E-3
MEAN_MOTION_DOT = .13533E-3
MEAN_MOTION_DDOT = 0

CCSDS_OMM_VERS = 2.0
CREATION_DATE  = 
ORIGINATOR     = 

OBJECT_NAME    = 2026-023F
OBJECT_ID      = 2026-023F
CENTER_NAME    = EARTH
REF_FRAME      = TEME
TIME_SYSTEM    = UTC
MEAN_ELEMENT_THEORY = SGP/SGP4

EPOCH          = 2026-02-23T20:28:24.142080
MEAN_MOTION    = 15.22828611
ECCENTRICITY   = .0021555
INCLINATION    = 96.6345
RA_OF_ASC_NODE = 131.9007
ARG_OF_PERICENTER = 168.7807
MEAN_ANOMALY   = 191.3917

EPHEMERIS_TYPE = 0
CLASSIFICATION_TYPE = U
NORAD_CAT_ID   = 67679
ELEMENT_SET_NO = 999
REV_AT_EPOCH   = 273
BSTAR          = .6275E-3
MEAN_MOTION_DOT = .1473E-3
MEAN_MOTION_DDOT = 0

CCSDS_OMM_VERS = 2.0
CREATION_DATE  = 
ORIGINATOR     = 

OBJECT_NAME    = 2026-023G
OBJECT_ID      = 2026-023G
CENTER_NAME    = EARTH
REF_FRAME      = TEME
TIME_SYSTEM    = UTC
MEAN_ELEMENT_THEORY = SGP/SGP4

EPOCH          = 2026-02-23T20:29:02.893344
MEAN_MOTION    = 15.22783781
ECCENTRICITY   = .0023132
INCLINATION    = 96.6272
RA_OF_ASC_NODE = 131.8912
ARG_OF_PERICENTER = 165.3482
MEAN_ANOMALY   = 194.8432

EPHEMERIS_TYPE = 0
CLASSIFICATION_TYPE = U
NORAD_CAT_ID   = 67680
ELEMENT_SET_NO = 999
REV_AT_EPOCH   = 273
BSTAR          = .57957E-3
MEAN_MOTION_DOT = .13594E-3
MEAN_MOTION_DDOT = 0

CCSDS_OMM_VERS = 2.0
CREATION_DATE  = 
ORIGINATOR     = 

OBJECT_NAME    = 2026-023H
OBJECT_ID      = 2026-023H
CENTER_NAME    = EARTH
REF_FRAME      = TEME
TIME_SYSTEM    = UTC
MEAN_ELEMENT_THEORY = SGP/SGP4

EPOCH          = 2026-02-23T20:28:50.317824
MEAN_MOTION    = 15.22759809
ECCENTRICITY   = .0023185
INCLINATION    = 96.6418
RA_OF_ASC_NODE = 131.9061
ARG_OF_PERICENTER = 164.7004
MEAN_ANOMALY   = 195.4941

EPHEMERIS_TYPE = 0
CLASSIFICATION_TYPE = U
NORAD_CAT_ID   = 67681
ELEMENT_SET_NO = 999
REV_AT_EPOCH   = 273
BSTAR          = .48015E-3
MEAN_MOTION_DOT = .11241E-3
MEAN_MOTION_DDOT = 0

CCSDS_OMM_VERS = 2.0
CREATION_DATE  = 
ORIGINATOR     = 

OBJECT_NAME    = 2026-023J
OBJECT_ID      = 2026-023J
CENTER_NAME    = EARTH
REF_FRAME      = TEME
TIME_SYSTEM    = UTC
MEAN_ELEMENT_THEORY = SGP/SGP4

EPOCH          = 2026-02-23T20:27:56.750688
MEAN_MOTION    = 15.22845209
ECCENTRICITY   = .0023376
INCLINATION    = 96.6372
RA_OF_ASC_NODE = 131.9148
ARG_OF_PERICENTER = 161.5859
MEAN_ANOMALY   = 198.6231

EPHEMERIS_TYPE = 0
CLASSIFICATION_TYPE = U
NORAD_CAT_ID   = 67682
ELEMENT_SET_NO = 999
REV_AT_EPOCH   = 273
BSTAR          = .60575E-3
MEAN_MOTION_DOT = .1424E-3
MEAN_MOTION_DDOT = 0

CCSDS_OMM_VERS = 2.0
CREATION_DATE  = 
ORIGINATOR     = 

OBJECT_NAME    = ISS OBJECT XZ
OBJECT_ID      = 1998-067XZ
CENTER_NAME    = EARTH
REF_FRAME      = TEME
TIME_SYSTEM    = UTC
MEAN_ELEMENT_THEORY = SGP/SGP4

EPOCH          = 2026-02-23T14:51:13.783392
MEAN_MOTION    = 15.50631727
ECCENTRICITY   = .000987
INCLINATION    = 51.6312
RA_OF_ASC_NODE = 141.6993
ARG_OF_PERICENTER = 138.9197
MEAN_ANOMALY   = 221.2537

EPHEMERIS_TYPE = 0
CLASSIFICATION_TYPE = U
NORAD_CAT_ID   = 67683
ELEMENT_SET_NO = 999
REV_AT_EPOCH   = 260
BSTAR          = .67941E-3
MEAN_MOTION_DOT = .39458E-3
MEAN_MOTION_DDOT = 0

CCSDS_OMM_VERS = 2.0
CREATION_DATE  = 
ORIGINATOR     = 

OBJECT_NAME    = GXIBA-1
OBJECT_ID      = 1998-067YA
CENTER_NAME    = EARTH
REF_FRAME      = TEME
TIME_SYSTEM    = UTC
MEAN_ELEMENT_THEORY = SGP/SGP4

EPOCH          = 2026-02-23T14:36:54.147456
MEAN_MOTION    = 15.52042398
ECCENTRICITY   = .0011445
INCLINATION    = 51.6305
RA_OF_ASC_NODE = 141.6332
ARG_OF_PERICENTER = 131.0139
MEAN_ANOMALY   = 229.1842

EPHEMERIS_TYPE = 0
CLASSIFICATION_TYPE = U
NORAD_CAT_ID   = 67684
ELEMENT_SET_NO = 999
REV_AT_EPOCH   = 260
BSTAR          = .11717E-2
MEAN_MOTION_DOT = .72287E-3
MEAN_MOTION_DDOT = 0

