STARLINK-36616          
1 67672U 26022AA  26054.53062519  .00502959  00000+0  31585-2 0  9991
2 67672  97.2852  87.8633 0001550  78.5442 281.5998 15.75334939  3328
COSMOS 2600             
1 67674U 26023A   26054.61834255  .00094306  00000+0  43152-3 0  9993
2 67674  96.6455 130.7022 0001632  56.8519 303.2909 15.83467665  2827
2026-023B               
1 67675U 26023B   26054.85516368  .00011055  00000+0  47546-3 0  9993
2 67675  96.6379 129.4066 0018498 179.1984 180.9287 15.22623183  2752
2026-023C               
1 67676U 26023C   26054.85438762  .00013133  00000+0  56244-3 0  9999
2 67676  96.6415 129.4241 0019690 169.3583 190.8077 15.22707396  2914
2026-023D               
1 67677U 26023D   26054.85589289  .00011408  00000+0  49127-3 0  9996
2 67677  96.6445 129.4102 0019839 174.3703 185.7762 15.22549359  2747
2026-023E               
1 67678U 26023E   26054.85470329  .00013533  00000+0  57986-3 0  9994
2 67678  96.6339 129.4022 0019640 173.7995 186.3491 15.22685176  2741
2026-023F               
1 67679U 26023F   26054.85305720  .00014730  00000+0  62750-3 0  9992
2 67679  96.6345 131.9007 0021555 168.7807 191.3917 15.22828611  2735
2026-023G               
1 67680U 26023G   26054.85350571  .00013594  00000+0  57957-3 0  9998
2 67680  96.6272 131.8912 0023132 165.3482 194.8432 15.22783781  2733
2026-023H               
1 67681U 26023H   26054.85336016  .00011241  00000+0  48015-3 0  9999
2 67681  96.6418 131.9061 0023185 164.7004 195.4941 15.22759809  2739
2026-023J               
1 67682U 26023J   26054.85274017  .00014240  00000+0  60575-3 0  9999
2 67682  96.6372 131.9148 0023376 161.5859 198.6231 15.22845209  2737
ISS OBJECT XZ           
1 67683U 98067XZ  26054.61890953  .00039458  00000+0  67941-3 0  9996
2 67683  51.6312 141.6993 0009870 138.9197 221.2537 15.50631727  2602
GXIBA-1                 
1 67684U 98067YA  26054.60896004  .00072287  00000+0  11717-2 0  9995
2 67684  51.6305 141.6332 0011445 131.0139 229.1842 15.52042398  2601
